{"type":"FeatureCollection","features":[{"type":"Feature","id":"ABW","properties":{"ADM0_A3":"ABW","NAME":"Aruba","LABELRANK":5,"BBOX_MIN_LNG":-70.066113,"BBOX_MIN_LAT":12.422998,"BBOX_MAX_LNG":-69.895703,"BBOX_MAX_LAT":12.614111},"geometry":{"type":"Point","coordinates":[-69.98268238441145,12.520892454235725]}},{"type":"Feature","id":"AFG","properties":{"ADM0_A3":"AFG","NAME":"Afghanistan","LABELRANK":3,"BBOX_MIN_LNG":60.485742,"BBOX_MIN_LAT":29.391943,"BBOX_MAX_LNG":74.891309,"BBOX_MAX_LAT":38.456396},"geometry":{"type":"Point","coordinates":[66.04433200214132,33.913254741281584]}},{"type":"Feature","id":"AGO","properties":{"ADM0_A3":"AGO","NAME":"Angola","LABELRANK":3,"BBOX_MIN_LNG":11.743066,"BBOX_MIN_LAT":-18.019727,"BBOX_MAX_LNG":24.04668,"BBOX_MAX_LAT":-5.855176},"geometry":{"type":"Point","coordinates":[17.566566116264145,-12.38890003084643]}},{"type":"Feature","id":"AIA","properties":{"ADM0_A3":"AIA","NAME":"Anguilla","LABELRANK":6,"BBOX_MIN_LNG":-63.16001,"BBOX_MIN_LAT":18.171387,"BBOX_MAX_LNG":-62.97959,"BBOX_MAX_LAT":18.269727},"geometry":{"type":"Point","coordinates":[-63.06498492257408,18.22396524279084]}},{"type":"Feature","id":"ALB","properties":{"ADM0_A3":"ALB","NAME":"Albania","LABELRANK":6,"BBOX_MIN_LNG":19.280664,"BBOX_MIN_LAT":39.653516,"BBOX_MAX_LNG":21.031055,"BBOX_MAX_LAT":42.647949},"geometry":{"type":"Point","coordinates":[20.04882677955194,41.15478572247588]}},{"type":"Feature","id":"ALD","properties":{"ADM0_A3":"ALD","NAME":"Åland","LABELRANK":6,"BBOX_MIN_LNG":19.672266,"BBOX_MIN_LAT":60.081738,"BBOX_MAX_LNG":20.258887,"BBOX_MAX_LAT":60.405811},"geometry":{"type":"Point","coordinates":[19.944090680471916,60.23160320592534]}},{"type":"Feature","id":"AND","properties":{"ADM0_A3":"AND","NAME":"Andorra","LABELRANK":6,"BBOX_MIN_LNG":1.414844,"BBOX_MIN_LAT":42.434473,"BBOX_MAX_LNG":1.740234,"BBOX_MAX_LAT":42.642725},"geometry":{"type":"Point","coordinates":[1.5605540064054255,42.54235180912471]}},{"type":"Feature","id":"ARE","properties":{"ADM0_A3":"ARE","NAME":"United Arab Emirates","LABELRANK":4,"BBOX_MIN_LNG":51.568359,"BBOX_MIN_LAT":22.621484,"BBOX_MAX_LNG":56.387988,"BBOX_MAX_LAT":26.068164},"geometry":{"type":"Point","coordinates":[54.31107285016076,23.910162778862382]}},{"type":"Feature","id":"ARG","properties":{"ADM0_A3":"ARG","NAME":"Argentina","LABELRANK":2,"BBOX_MIN_LNG":-73.57627,"BBOX_MIN_LAT":-52.356641,"BBOX_MAX_LNG":-53.668555,"BBOX_MAX_LAT":-21.802539},"geometry":{"type":"Point","coordinates":[-65.39206715374229,-36.31413119788764]}},{"type":"Feature","id":"ARM","properties":{"ADM0_A3":"ARM","NAME":"Armenia","LABELRANK":6,"BBOX_MIN_LNG":43.439453,"BBOX_MIN_LAT":38.869043,"BBOX_MAX_LNG":46.584766,"BBOX_MAX_LAT":41.290967},"geometry":{"type":"Point","coordinates":[44.92506967632193,40.29688709891467]}},{"type":"Feature","id":"ASM","properties":{"ADM0_A3":"ASM","NAME":"American Samoa","LABELRANK":4,"BBOX_MIN_LNG":-170.820508,"BBOX_MIN_LAT":-14.359766,"BBOX_MAX_LNG":-170.568115,"BBOX_MAX_LAT":-14.257422},"geometry":{"type":"Point","coordinates":[-170.71802922750712,-14.304464670198039]}},{"type":"Feature","id":"ATA","properties":{"ADM0_A3":"ATA","NAME":"Antarctica","LABELRANK":4,"BBOX_MIN_LNG":-180,"BBOX_MIN_LAT":-89.998926,"BBOX_MAX_LNG":180,"BBOX_MAX_LAT":-63.22627},"geometry":{"type":"Point","coordinates":[2.3899170576349973,-89.87039484296683]}},{"type":"Feature","id":"ATC","properties":{"ADM0_A3":"ATC","NAME":"Ashmore and Cartier Is.","LABELRANK":5,"BBOX_MIN_LNG":123.572461,"BBOX_MIN_LAT":-12.435938,"BBOX_MAX_LNG":123.595215,"BBOX_MAX_LAT":-12.423926},"geometry":{"type":"Point","coordinates":[123.58383797104204,-12.429932048755273]}},{"type":"Feature","id":"ATF","properties":{"ADM0_A3":"ATF","NAME":"Fr. S. Antarctic Lands","LABELRANK":6,"BBOX_MIN_LNG":68.769531,"BBOX_MIN_LAT":-49.709863,"BBOX_MAX_LNG":70.555469,"BBOX_MAX_LAT":-48.656445},"geometry":{"type":"Point","coordinates":[69.49587280138061,-49.30574707436165]}},{"type":"Feature","id":"ATG","properties":{"ADM0_A3":"ATG","NAME":"Antigua and Barb.","LABELRANK":6,"BBOX_MIN_LNG":-61.887109,"BBOX_MIN_LAT":16.997168,"BBOX_MAX_LNG":-61.686035,"BBOX_MAX_LAT":17.168945},"geometry":{"type":"Point","coordinates":[-61.78996572441439,17.07779123890726]}},{"type":"Feature","id":"AUS","properties":{"ADM0_A3":"AUS","NAME":"Australia","LABELRANK":2,"BBOX_MIN_LNG":113.184766,"BBOX_MIN_LAT":-39.145508,"BBOX_MAX_LNG":153.616895,"BBOX_MAX_LAT":-10.707324},"geometry":{"type":"Point","coordinates":[134.44314596175226,-26.022825476894273]}},{"type":"Feature","id":"AUT","properties":{"ADM0_A3":"AUT","NAME":"Austria","LABELRANK":4,"BBOX_MIN_LNG":9.524023,"BBOX_MIN_LAT":46.399707,"BBOX_MAX_LNG":17.147363,"BBOX_MAX_LAT":49.001123},"geometry":{"type":"Point","coordinates":[14.134678757817595,47.595707415910994]}},{"type":"Feature","id":"AZE","properties":{"ADM0_A3":"AZE","NAME":"Azerbaijan","LABELRANK":5,"BBOX_MIN_LNG":45.001367,"BBOX_MIN_LAT":38.39873,"BBOX_MAX_LNG":50.365918,"BBOX_MAX_LAT":41.890967},"geometry":{"type":"Point","coordinates":[47.661195527100645,40.35573855913907]}},{"type":"Feature","id":"BDI","properties":{"ADM0_A3":"BDI","NAME":"Burundi","LABELRANK":6,"BBOX_MIN_LNG":29.01416,"BBOX_MIN_LAT":-4.455859,"BBOX_MAX_LNG":30.811426,"BBOX_MAX_LAT":-2.312988},"geometry":{"type":"Point","coordinates":[29.875067967971756,-3.359797111030251]}},{"type":"Feature","id":"BEL","properties":{"ADM0_A3":"BEL","NAME":"Belgium","LABELRANK":2,"BBOX_MIN_LNG":2.524902,"BBOX_MIN_LAT":49.510889,"BBOX_MAX_LNG":6.364453,"BBOX_MAX_LAT":51.491113},"geometry":{"type":"Point","coordinates":[4.635125034914191,50.64566676423359]}},{"type":"Feature","id":"BEN","properties":{"ADM0_A3":"BEN","NAME":"Benin","LABELRANK":5,"BBOX_MIN_LNG":0.763379,"BBOX_MIN_LAT":6.216797,"BBOX_MAX_LNG":3.834473,"BBOX_MAX_LAT":12.383838},"geometry":{"type":"Point","coordinates":[2.3284743707180917,9.652014225030397]}},{"type":"Feature","id":"BFA","properties":{"ADM0_A3":"BFA","NAME":"Burkina Faso","LABELRANK":3,"BBOX_MIN_LNG":-5.523535,"BBOX_MIN_LAT":9.424707,"BBOX_MAX_LNG":2.38916,"BBOX_MAX_LAT":15.077881},"geometry":{"type":"Point","coordinates":[-1.751294832013069,12.277620525896635]}},{"type":"Feature","id":"BGD","properties":{"ADM0_A3":"BGD","NAME":"Bangladesh","LABELRANK":3,"BBOX_MIN_LNG":88.023438,"BBOX_MIN_LAT":20.79043,"BBOX_MAX_LNG":92.631641,"BBOX_MAX_LAT":26.571533},"geometry":{"type":"Point","coordinates":[90.21963184445491,23.913820548283518]}},{"type":"Feature","id":"BGR","properties":{"ADM0_A3":"BGR","NAME":"Bulgaria","LABELRANK":4,"BBOX_MIN_LNG":22.344043,"BBOX_MIN_LAT":41.243555,"BBOX_MAX_LNG":28.585352,"BBOX_MAX_LAT":44.237793},"geometry":{"type":"Point","coordinates":[25.218705702862298,42.7811531492758]}},{"type":"Feature","id":"BHR","properties":{"ADM0_A3":"BHR","NAME":"Bahrain","LABELRANK":4,"BBOX_MIN_LNG":50.452441,"BBOX_MIN_LAT":25.806787,"BBOX_MAX_LNG":50.61748,"BBOX_MAX_LAT":26.246436},"geometry":{"type":"Point","coordinates":[50.54195960896837,26.042208350086682]}},{"type":"Feature","id":"BHS","properties":{"ADM0_A3":"BHS","NAME":"Bahamas","LABELRANK":4,"BBOX_MIN_LNG":-78.435303,"BBOX_MIN_LAT":24.287451,"BBOX_MAX_LNG":-77.735107,"BBOX_MAX_LAT":25.202344},"geometry":{"type":"Point","coordinates":[-78.0378438927871,24.70190523206027]}},{"type":"Feature","id":"BIH","properties":{"ADM0_A3":"BIH","NAME":"Bosnia and Herz.","LABELRANK":5,"BBOX_MIN_LNG":15.736621,"BBOX_MIN_LAT":42.559717,"BBOX_MAX_LNG":19.583789,"BBOX_MAX_LAT":45.276562},"geometry":{"type":"Point","coordinates":[17.765718276059637,44.18403692194526]}},{"type":"Feature","id":"BLM","properties":{"ADM0_A3":"BLM","NAME":"St-Barthélemy","LABELRANK":6,"BBOX_MIN_LNG":-62.875439,"BBOX_MIN_LAT":17.875195,"BBOX_MAX_LNG":-62.799707,"BBOX_MAX_LAT":17.922266},"geometry":{"type":"Point","coordinates":[-62.84067800002682,17.89880543025828]}},{"type":"Feature","id":"BLR","properties":{"ADM0_A3":"BLR","NAME":"Belarus","LABELRANK":4,"BBOX_MIN_LNG":23.175098,"BBOX_MIN_LAT":51.265039,"BBOX_MAX_LNG":32.710254,"BBOX_MAX_LAT":56.145801},"geometry":{"type":"Point","coordinates":[28.040948804708574,53.57818994922564]}},{"type":"Feature","id":"BLZ","properties":{"ADM0_A3":"BLZ","NAME":"Belize","LABELRANK":6,"BBOX_MIN_LNG":-89.2375,"BBOX_MIN_LAT":15.888672,"BBOX_MAX_LNG":-88.085254,"BBOX_MAX_LAT":18.482324},"geometry":{"type":"Point","coordinates":[-88.71800542673218,17.198038753110996]}},{"type":"Feature","id":"BMU","properties":{"ADM0_A3":"BMU","NAME":"Bermuda","LABELRANK":6,"BBOX_MIN_LNG":-64.862842,"BBOX_MIN_LAT":32.259619,"BBOX_MAX_LNG":-64.668311,"BBOX_MAX_LAT":32.386914},"geometry":{"type":"Point","coordinates":[-64.75454615122605,32.31369768165848]}},{"type":"Feature","id":"BOL","properties":{"ADM0_A3":"BOL","NAME":"Bolivia","LABELRANK":3,"BBOX_MIN_LNG":-69.645703,"BBOX_MIN_LAT":-22.891699,"BBOX_MAX_LNG":-57.495654,"BBOX_MAX_LAT":-9.710449},"geometry":{"type":"Point","coordinates":[-64.67942729581803,-16.776279915224944]}},{"type":"Feature","id":"BRA","properties":{"ADM0_A3":"BRA","NAME":"Brazil","LABELRANK":2,"BBOX_MIN_LNG":-74.002051,"BBOX_MIN_LAT":-33.742188,"BBOX_MAX_LNG":-34.805469,"BBOX_MAX_LAT":5.257959},"geometry":{"type":"Point","coordinates":[-53.05358064723209,-11.239752859841058]}},{"type":"Feature","id":"BRB","properties":{"ADM0_A3":"BRB","NAME":"Barbados","LABELRANK":5,"BBOX_MIN_LNG":-59.64668,"BBOX_MIN_LAT":13.062207,"BBOX_MAX_LNG":-59.427637,"BBOX_MAX_LAT":13.317676},"geometry":{"type":"Point","coordinates":[-59.55980248398194,13.181477993444608]}},{"type":"Feature","id":"BRN","properties":{"ADM0_A3":"BRN","NAME":"Brunei","LABELRANK":6,"BBOX_MIN_LNG":114.063867,"BBOX_MIN_LAT":4.023975,"BBOX_MAX_LNG":115.047656,"BBOX_MAX_LAT":5.022363},"geometry":{"type":"Point","coordinates":[114.59197954857606,4.490597096915304]}},{"type":"Feature","id":"BTN","properties":{"ADM0_A3":"BTN","NAME":"Bhutan","LABELRANK":5,"BBOX_MIN_LNG":88.73877,"BBOX_MIN_LAT":26.701563,"BBOX_MAX_LNG":92.083398,"BBOX_MAX_LAT":28.311182},"geometry":{"type":"Point","coordinates":[90.40173655689702,27.413018762767607]}},{"type":"Feature","id":"BWA","properties":{"ADM0_A3":"BWA","NAME":"Botswana","LABELRANK":4,"BBOX_MIN_LNG":19.977344,"BBOX_MIN_LAT":-26.854199,"BBOX_MAX_LNG":29.364844,"BBOX_MAX_LAT":-17.787598},"geometry":{"type":"Point","coordinates":[23.79323231109882,-22.231936432915756]}},{"type":"Feature","id":"CAF","properties":{"ADM0_A3":"CAF","NAME":"Central African Rep.","LABELRANK":4,"BBOX_MIN_LNG":14.431152,"BBOX_MIN_LAT":2.270068,"BBOX_MAX_LNG":27.40332,"BBOX_MAX_LAT":10.99624},"geometry":{"type":"Point","coordinates":[20.47152723354351,6.57636197586482]}},{"type":"Feature","id":"CAN","properties":{"ADM0_A3":"CAN","NAME":"Canada","LABELRANK":2,"BBOX_MIN_LNG":-141.002148,"BBOX_MIN_LAT":41.674854,"BBOX_MAX_LNG":-55.672803,"BBOX_MAX_LAT":71.986865},"geometry":{"type":"Point","coordinates":[-104.12555577100359,59.75213450429871]}},{"type":"Feature","id":"CHE","properties":{"ADM0_A3":"CHE","NAME":"Switzerland","LABELRANK":4,"BBOX_MIN_LNG":5.97002,"BBOX_MIN_LAT":45.830029,"BBOX_MAX_LNG":10.45459,"BBOX_MAX_LAT":47.775635},"geometry":{"type":"Point","coordinates":[8.209864140056817,46.80295358906501]}},{"type":"Feature","id":"CHL","properties":{"ADM0_A3":"CHL","NAME":"Chile","LABELRANK":2,"BBOX_MIN_LNG":-75.708105,"BBOX_MIN_LAT":-53.883398,"BBOX_MAX_LNG":-67.008789,"BBOX_MAX_LAT":-17.506055},"geometry":{"type":"Point","coordinates":[-71.49579876046019,-37.94450879310066]}},{"type":"Feature","id":"CHN","properties":{"ADM0_A3":"CHN","NAME":"China","LABELRANK":2,"BBOX_MIN_LNG":73.607324,"BBOX_MIN_LAT":20.263721,"BBOX_MAX_LNG":134.752344,"BBOX_MAX_LAT":53.555615},"geometry":{"type":"Point","coordinates":[104.12972749660196,37.634236451147686]}},{"type":"Feature","id":"CIV","properties":{"ADM0_A3":"CIV","NAME":"Côte d'Ivoire","LABELRANK":3,"BBOX_MIN_LNG":-8.603564,"BBOX_MIN_LAT":4.351318,"BBOX_MAX_LNG":-2.505859,"BBOX_MAX_LAT":10.724072},"geometry":{"type":"Point","coordinates":[-5.56977542772021,7.636644866945733]}},{"type":"Feature","id":"CMR","properties":{"ADM0_A3":"CMR","NAME":"Cameroon","LABELRANK":3,"BBOX_MIN_LNG":8.532813,"BBOX_MIN_LAT":1.676221,"BBOX_MAX_LNG":16.183398,"BBOX_MAX_LAT":13.078516},"geometry":{"type":"Point","coordinates":[12.742582743545501,5.709030307390258]}},{"type":"Feature","id":"COD","properties":{"ADM0_A3":"COD","NAME":"Dem. Rep. Congo","LABELRANK":2,"BBOX_MIN_LNG":12.213672,"BBOX_MIN_LAT":-13.453809,"BBOX_MAX_LNG":31.274023,"BBOX_MAX_LAT":5.312109},"geometry":{"type":"Point","coordinates":[23.647667933289153,-2.904760185897393]}},{"type":"Feature","id":"COG","properties":{"ADM0_A3":"COG","NAME":"Congo","LABELRANK":4,"BBOX_MIN_LNG":11.130176,"BBOX_MIN_LAT":-5.004297,"BBOX_MAX_LNG":18.622168,"BBOX_MAX_LAT":3.687305},"geometry":{"type":"Point","coordinates":[15.218945399856754,-0.8398125050962761]}},{"type":"Feature","id":"COK","properties":{"ADM0_A3":"COK","NAME":"Cook Is.","LABELRANK":4,"BBOX_MIN_LNG":-159.84248,"BBOX_MIN_LAT":-21.249512,"BBOX_MAX_LNG":-159.736865,"BBOX_MAX_LAT":-21.186426},"geometry":{"type":"Point","coordinates":[-159.78724155981934,-21.219275751544348]}},{"type":"Feature","id":"COL","properties":{"ADM0_A3":"COL","NAME":"Colombia","LABELRANK":2,"BBOX_MIN_LNG":-79.025439,"BBOX_MIN_LAT":-4.235938,"BBOX_MAX_LNG":-66.876025,"BBOX_MAX_LAT":12.434375},"geometry":{"type":"Point","coordinates":[-73.08283112719899,3.934968442924779]}},{"type":"Feature","id":"COM","properties":{"ADM0_A3":"COM","NAME":"Comoros","LABELRANK":6,"BBOX_MIN_LNG":43.22666,"BBOX_MIN_LAT":-11.914551,"BBOX_MAX_LNG":43.491504,"BBOX_MAX_LAT":-11.368457},"geometry":{"type":"Point","coordinates":[43.339157167215845,-11.654487273469318]}},{"type":"Feature","id":"CPV","properties":{"ADM0_A3":"CPV","NAME":"Cabo Verde","LABELRANK":4,"BBOX_MIN_LNG":-23.78501,"BBOX_MIN_LAT":14.916113,"BBOX_MAX_LNG":-23.444238,"BBOX_MAX_LAT":15.328516},"geometry":{"type":"Point","coordinates":[-23.637167330025246,15.082468617919266]}},{"type":"Feature","id":"CRI","properties":{"ADM0_A3":"CRI","NAME":"Costa Rica","LABELRANK":5,"BBOX_MIN_LNG":-85.908008,"BBOX_MIN_LAT":8.070654,"BBOX_MAX_LNG":-82.563574,"BBOX_MAX_LAT":11.189453},"geometry":{"type":"Point","coordinates":[-84.19318519119572,9.9782537613289]}},{"type":"Feature","id":"CUB","properties":{"ADM0_A3":"CUB","NAME":"Cuba","LABELRANK":3,"BBOX_MIN_LNG":-84.887207,"BBOX_MIN_LAT":19.855469,"BBOX_MAX_LNG":-74.136816,"BBOX_MAX_LAT":23.19043},"geometry":{"type":"Point","coordinates":[-78.95826040553601,21.62350729741447]}},{"type":"Feature","id":"CUW","properties":{"ADM0_A3":"CUW","NAME":"Curaçao","LABELRANK":5,"BBOX_MIN_LNG":-69.158887,"BBOX_MIN_LAT":12.045459,"BBOX_MAX_LNG":-68.751074,"BBOX_MAX_LAT":12.380273},"geometry":{"type":"Point","coordinates":[-68.97122372794959,12.195559195304043]}},{"type":"Feature","id":"CYM","properties":{"ADM0_A3":"CYM","NAME":"Cayman Is.","LABELRANK":5,"BBOX_MIN_LNG":-81.419092,"BBOX_MIN_LAT":19.271875,"BBOX_MAX_LNG":-81.107129,"BBOX_MAX_LAT":19.384912},"geometry":{"type":"Point","coordinates":[-81.28502281456927,19.32087881966337]}},{"type":"Feature","id":"CYN","properties":{"ADM0_A3":"CYN","NAME":"N. Cyprus","LABELRANK":6,"BBOX_MIN_LNG":32.712695,"BBOX_MIN_LAT":35.000342,"BBOX_MAX_LNG":34.556055,"BBOX_MAX_LAT":35.662061},"geometry":{"type":"Point","coordinates":[33.56872106924168,35.26306463432995]}},{"type":"Feature","id":"CYP","properties":{"ADM0_A3":"CYP","NAME":"Cyprus","LABELRANK":5,"BBOX_MIN_LNG":32.300977,"BBOX_MIN_LAT":34.56958,"BBOX_MAX_LNG":34.050195,"BBOX_MAX_LAT":35.182666},"geometry":{"type":"Point","coordinates":[33.00609163435704,34.91698622250791]}},{"type":"Feature","id":"CZE","properties":{"ADM0_A3":"CZE","NAME":"Czechia","LABELRANK":5,"BBOX_MIN_LNG":12.089746,"BBOX_MIN_LAT":48.576221,"BBOX_MAX_LNG":18.832227,"BBOX_MAX_LAT":51.037793},"geometry":{"type":"Point","coordinates":[15.308843639174361,49.74233309966892]}},{"type":"Feature","id":"DEU","properties":{"ADM0_A3":"DEU","NAME":"Germany","LABELRANK":2,"BBOX_MIN_LNG":5.85752,"BBOX_MIN_LAT":47.278809,"BBOX_MAX_LNG":15.016602,"BBOX_MAX_LAT":54.903418},"geometry":{"type":"Point","coordinates":[10.382352199352033,51.19858435757565]}},{"type":"Feature","id":"DJI","properties":{"ADM0_A3":"DJI","NAME":"Djibouti","LABELRANK":5,"BBOX_MIN_LNG":41.764648,"BBOX_MIN_LAT":10.941016,"BBOX_MAX_LNG":43.409766,"BBOX_MAX_LAT":12.708594},"geometry":{"type":"Point","coordinates":[42.5609704311394,11.74978992677865]}},{"type":"Feature","id":"DMA","properties":{"ADM0_A3":"DMA","NAME":"Dominica","LABELRANK":6,"BBOX_MIN_LNG":-61.481152,"BBOX_MIN_LAT":15.227295,"BBOX_MAX_LNG":-61.251074,"BBOX_MAX_LAT":15.633105},"geometry":{"type":"Point","coordinates":[-61.35773688019805,15.439546302179663]}},{"type":"Feature","id":"DNK","properties":{"ADM0_A3":"DNK","NAME":"Denmark","LABELRANK":4,"BBOX_MIN_LNG":8.121484,"BBOX_MIN_LAT":54.806299,"BBOX_MAX_LNG":10.926172,"BBOX_MAX_LAT":57.736914},"geometry":{"type":"Point","coordinates":[9.360083479283144,56.25777689296302]}},{"type":"Feature","id":"DOM","properties":{"ADM0_A3":"DOM","NAME":"Dominican Rep.","LABELRANK":5,"BBOX_MIN_LNG":-72.000391,"BBOX_MIN_LAT":17.635596,"BBOX_MAX_LNG":-68.33916,"BBOX_MAX_LAT":19.913965},"geometry":{"type":"Point","coordinates":[-70.50591621209799,18.896337347609055]}},{"type":"Feature","id":"DZA","properties":{"ADM0_A3":"DZA","NAME":"Algeria","LABELRANK":3,"BBOX_MIN_LNG":-8.68335,"BBOX_MIN_LAT":18.986621,"BBOX_MAX_LNG":11.967871,"BBOX_MAX_LAT":37.092383},"geometry":{"type":"Point","coordinates":[2.6140883835410476,28.420425982768972]}},{"type":"Feature","id":"ECU","properties":{"ADM0_A3":"ECU","NAME":"Ecuador","LABELRANK":3,"BBOX_MIN_LNG":-80.962793,"BBOX_MIN_LAT":-4.990625,"BBOX_MAX_LNG":-75.249609,"BBOX_MAX_LAT":1.455371},"geometry":{"type":"Point","coordinates":[-78.39007297443732,-1.4468301887289552]}},{"type":"Feature","id":"EGY","properties":{"ADM0_A3":"EGY","NAME":"Egypt","LABELRANK":2,"BBOX_MIN_LNG":24.703223,"BBOX_MIN_LAT":21.994873,"BBOX_MAX_LNG":36.871387,"BBOX_MAX_LAT":31.65498},"geometry":{"type":"Point","coordinates":[29.853749832340302,26.594773265427598]}},{"type":"Feature","id":"ERI","properties":{"ADM0_A3":"ERI","NAME":"Eritrea","LABELRANK":4,"BBOX_MIN_LNG":36.426758,"BBOX_MIN_LAT":12.376562,"BBOX_MAX_LNG":43.116699,"BBOX_MAX_LAT":18.005078},"geometry":{"type":"Point","coordinates":[38.83235229482205,15.369467446501158]}},{"type":"Feature","id":"ESP","properties":{"ADM0_A3":"ESP","NAME":"Spain","LABELRANK":2,"BBOX_MIN_LNG":-9.235645,"BBOX_MIN_LAT":36.025928,"BBOX_MAX_LNG":3.306738,"BBOX_MAX_LAT":43.764551},"geometry":{"type":"Point","coordinates":[-3.5594195019861092,40.48231769206177]}},{"type":"Feature","id":"EST","properties":{"ADM0_A3":"EST","NAME":"Estonia","LABELRANK":6,"BBOX_MIN_LNG":23.432031,"BBOX_MIN_LAT":57.525488,"BBOX_MAX_LNG":28.151074,"BBOX_MAX_LAT":59.639014},"geometry":{"type":"Point","coordinates":[25.829543590944542,58.69695319954447]}},{"type":"Feature","id":"ETH","properties":{"ADM0_A3":"ETH","NAME":"Ethiopia","LABELRANK":2,"BBOX_MIN_LNG":32.998926,"BBOX_MIN_LAT":3.456104,"BBOX_MAX_LNG":47.978223,"BBOX_MAX_LAT":14.852295},"geometry":{"type":"Point","coordinates":[39.59605587685233,8.652869682899318]}},{"type":"Feature","id":"FIN","properties":{"ADM0_A3":"FIN","NAME":"Finland","LABELRANK":3,"BBOX_MIN_LNG":20.622168,"BBOX_MIN_LAT":59.816016,"BBOX_MAX_LNG":31.536523,"BBOX_MAX_LAT":70.064844},"geometry":{"type":"Point","coordinates":[26.318077231930882,64.91504745411463]}},{"type":"Feature","id":"FJI","properties":{"ADM0_A3":"FJI","NAME":"Fiji","LABELRANK":6,"BBOX_MIN_LNG":177.254883,"BBOX_MIN_LAT":-18.264063,"BBOX_MAX_LNG":178.667676,"BBOX_MAX_LAT":-17.312988},"geometry":{"type":"Point","coordinates":[177.9728021961724,-17.823343057320884]}},{"type":"Feature","id":"FLK","properties":{"ADM0_A3":"FLK","NAME":"Falkland Is.","LABELRANK":5,"BBOX_MIN_LNG":-59.64917,"BBOX_MIN_LAT":-52.308008,"BBOX_MAX_LNG":-57.791797,"BBOX_MAX_LAT":-51.269922},"geometry":{"type":"Point","coordinates":[-58.76190665843515,-51.74655297730037]}},{"type":"Feature","id":"FRA","properties":{"ADM0_A3":"FRA","NAME":"France","LABELRANK":2,"BBOX_MIN_LNG":-4.7625,"BBOX_MIN_LAT":42.340479,"BBOX_MAX_LNG":8.140332,"BBOX_MAX_LAT":51.097119},"geometry":{"type":"Point","coordinates":[2.448735486212617,46.73799965908538]}},{"type":"Feature","id":"FRO","properties":{"ADM0_A3":"FRO","NAME":"Faeroe Is.","LABELRANK":6,"BBOX_MIN_LNG":-7.172168,"BBOX_MIN_LAT":61.951465,"BBOX_MAX_LNG":-6.631055,"BBOX_MAX_LAT":62.31626},"geometry":{"type":"Point","coordinates":[-6.8848312262057645,62.17051644989157]}},{"type":"Feature","id":"FSM","properties":{"ADM0_A3":"FSM","NAME":"Micronesia","LABELRANK":6,"BBOX_MIN_LNG":158.127637,"BBOX_MIN_LAT":6.791016,"BBOX_MAX_LNG":158.334961,"BBOX_MAX_LAT":6.977734},"geometry":{"type":"Point","coordinates":[158.23250653947326,6.885856357946823]}},{"type":"Feature","id":"GAB","properties":{"ADM0_A3":"GAB","NAME":"Gabon","LABELRANK":4,"BBOX_MIN_LNG":8.703125,"BBOX_MIN_LAT":-3.916309,"BBOX_MAX_LNG":14.480566,"BBOX_MAX_LAT":2.302197},"geometry":{"type":"Point","coordinates":[11.788571089415997,-0.5870890385501386]}},{"type":"Feature","id":"GBR","properties":{"ADM0_A3":"GBR","NAME":"United Kingdom","LABELRANK":2,"BBOX_MIN_LNG":-6.133691,"BBOX_MIN_LAT":50.021387,"BBOX_MAX_LNG":1.746582,"BBOX_MAX_LAT":58.65},"geometry":{"type":"Point","coordinates":[-2.557635287349046,54.12887766014025]}},{"type":"Feature","id":"GEO","properties":{"ADM0_A3":"GEO","NAME":"Georgia","LABELRANK":5,"BBOX_MIN_LNG":39.97832,"BBOX_MIN_LAT":41.070215,"BBOX_MAX_LNG":46.672559,"BBOX_MAX_LAT":43.569775},"geometry":{"type":"Point","coordinates":[43.49951403558849,42.17655494482005]}},{"type":"Feature","id":"GGY","properties":{"ADM0_A3":"GGY","NAME":"Guernsey","LABELRANK":6,"BBOX_MIN_LNG":-2.646143,"BBOX_MIN_LAT":49.428711,"BBOX_MAX_LNG":-2.512305,"BBOX_MAX_LAT":49.506592},"geometry":{"type":"Point","coordinates":[-2.5723893148197385,49.468108842173415]}},{"type":"Feature","id":"GHA","properties":{"ADM0_A3":"GHA","NAME":"Ghana","LABELRANK":3,"BBOX_MIN_LNG":-3.243896,"BBOX_MIN_LAT":4.762451,"BBOX_MAX_LNG":1.187207,"BBOX_MAX_LAT":11.166895},"geometry":{"type":"Point","coordinates":[-1.2166597213452917,7.963847534714359]}},{"type":"Feature","id":"GIN","properties":{"ADM0_A3":"GIN","NAME":"Guinea","LABELRANK":3,"BBOX_MIN_LNG":-15.051221,"BBOX_MIN_LAT":7.215918,"BBOX_MAX_LNG":-7.681201,"BBOX_MAX_LAT":12.673926},"geometry":{"type":"Point","coordinates":[-10.943820013056008,10.442770461396533]}},{"type":"Feature","id":"GMB","properties":{"ADM0_A3":"GMB","NAME":"Gambia","LABELRANK":6,"BBOX_MIN_LNG":-16.824805,"BBOX_MIN_LAT":13.06416,"BBOX_MAX_LNG":-13.826709,"BBOX_MAX_LAT":13.812109},"geometry":{"type":"Point","coordinates":[-15.395863121613024,13.449792275560783]}},{"type":"Feature","id":"GNB","properties":{"ADM0_A3":"GNB","NAME":"Guinea-Bissau","LABELRANK":6,"BBOX_MIN_LNG":-16.711816,"BBOX_MIN_LAT":10.940137,"BBOX_MAX_LNG":-13.673535,"BBOX_MAX_LAT":12.679932},"geometry":{"type":"Point","coordinates":[-14.923606389371052,12.064728684100007]}},{"type":"Feature","id":"GNQ","properties":{"ADM0_A3":"GNQ","NAME":"Eq. Guinea","LABELRANK":4,"BBOX_MIN_LNG":9.385938,"BBOX_MIN_LAT":0.960107,"BBOX_MAX_LNG":11.335352,"BBOX_MAX_LAT":2.304443},"geometry":{"type":"Point","coordinates":[10.470490358264135,1.5652816491851624]}},{"type":"Feature","id":"GRC","properties":{"ADM0_A3":"GRC","NAME":"Greece","LABELRANK":3,"BBOX_MIN_LNG":20.00127,"BBOX_MIN_LAT":36.446924,"BBOX_MAX_LNG":26.624902,"BBOX_MAX_LAT":41.743799},"geometry":{"type":"Point","coordinates":[22.5942811633413,39.516531814429165]}},{"type":"Feature","id":"GRD","properties":{"ADM0_A3":"GRD","NAME":"Grenada","LABELRANK":6,"BBOX_MIN_LNG":-61.782178,"BBOX_MIN_LAT":12.008447,"BBOX_MAX_LNG":-61.607031,"BBOX_MAX_LAT":12.237012},"geometry":{"type":"Point","coordinates":[-61.682198118461,12.117269422639854]}},{"type":"Feature","id":"GRL","properties":{"ADM0_A3":"GRL","NAME":"Greenland","LABELRANK":3,"BBOX_MIN_LNG":-72.818066,"BBOX_MIN_LAT":59.815479,"BBOX_MAX_LNG":-11.425537,"BBOX_MAX_LAT":83.599609},"geometry":{"type":"Point","coordinates":[-41.11163679543801,77.31454672796337]}},{"type":"Feature","id":"GTM","properties":{"ADM0_A3":"GTM","NAME":"Guatemala","LABELRANK":3,"BBOX_MIN_LNG":-92.235156,"BBOX_MIN_LAT":13.736523,"BBOX_MAX_LNG":-88.22832,"BBOX_MAX_LAT":17.816406},"geometry":{"type":"Point","coordinates":[-90.36360937649208,15.702346060202727]}},{"type":"Feature","id":"GUM","properties":{"ADM0_A3":"GUM","NAME":"Guam","LABELRANK":6,"BBOX_MIN_LNG":144.649316,"BBOX_MIN_LAT":13.25752,"BBOX_MAX_LNG":144.94082,"BBOX_MAX_LAT":13.622363},"geometry":{"type":"Point","coordinates":[144.76793008976998,13.441711808893007]}},{"type":"Feature","id":"GUY","properties":{"ADM0_A3":"GUY","NAME":"Guyana","LABELRANK":4,"BBOX_MIN_LNG":-61.39082,"BBOX_MIN_LAT":1.201221,"BBOX_MAX_LNG":-56.482812,"BBOX_MAX_LAT":8.549316},"geometry":{"type":"Point","coordinates":[-58.98307436364565,4.8010586768633035]}},{"type":"Feature","id":"HKG","properties":{"ADM0_A3":"HKG","NAME":"Hong Kong","LABELRANK":4,"BBOX_MIN_LNG":113.896484,"BBOX_MIN_LAT":22.295557,"BBOX_MAX_LNG":114.335254,"BBOX_MAX_LAT":22.56499},"geometry":{"type":"Point","coordinates":[114.13918501976526,22.439215782283068]}},{"type":"Feature","id":"HMD","properties":{"ADM0_A3":"HMD","NAME":"Heard I. and McDonald Is.","LABELRANK":5,"BBOX_MIN_LNG":73.251172,"BBOX_MIN_LAT":-53.18457,"BBOX_MAX_LNG":73.837793,"BBOX_MAX_LAT":-52.966309},"geometry":{"type":"Point","coordinates":[73.52058510189462,-53.087338957277034]}},{"type":"Feature","id":"HND","properties":{"ADM0_A3":"HND","NAME":"Honduras","LABELRANK":5,"BBOX_MIN_LNG":-89.362598,"BBOX_MIN_LAT":12.979248,"BBOX_MAX_LNG":-83.15752,"BBOX_MAX_LAT":16.02417},"geometry":{"type":"Point","coordinates":[-86.6145971989537,14.826532020772678]}},{"type":"Feature","id":"HRV","properties":{"ADM0_A3":"HRV","NAME":"Croatia","LABELRANK":6,"BBOX_MIN_LNG":13.517188,"BBOX_MIN_LAT":42.938379,"BBOX_MAX_LNG":19.400977,"BBOX_MAX_LAT":46.534619},"geometry":{"type":"Point","coordinates":[16.42634128732981,45.17377020653086]}},{"type":"Feature","id":"HTI","properties":{"ADM0_A3":"HTI","NAME":"Haiti","LABELRANK":5,"BBOX_MIN_LNG":-74.478125,"BBOX_MIN_LAT":18.03916,"BBOX_MAX_LNG":-71.645312,"BBOX_MAX_LAT":19.928076},"geometry":{"type":"Point","coordinates":[-72.67479620802112,18.930935287116014]}},{"type":"Feature","id":"HUN","properties":{"ADM0_A3":"HUN","NAME":"Hungary","LABELRANK":5,"BBOX_MIN_LNG":16.093066,"BBOX_MIN_LAT":45.753027,"BBOX_MAX_LNG":22.87666,"BBOX_MAX_LAT":48.553467},"geometry":{"type":"Point","coordinates":[19.403820071951177,47.17457553381186]}},{"type":"Feature","id":"IDN","properties":{"ADM0_A3":"IDN","NAME":"Indonesia","LABELRANK":2,"BBOX_MIN_LNG":108.905859,"BBOX_MIN_LAT":-4.169727,"BBOX_MAX_LNG":118.984961,"BBOX_MAX_LAT":4.370801},"geometry":{"type":"Point","coordinates":[114.01460892635086,-0.19083999785241149]}},{"type":"Feature","id":"IMN","properties":{"ADM0_A3":"IMN","NAME":"Isle of Man","LABELRANK":6,"BBOX_MIN_LNG":-4.785352,"BBOX_MIN_LAT":54.058691,"BBOX_MAX_LNG":-4.337988,"BBOX_MAX_LAT":54.407178},"geometry":{"type":"Point","coordinates":[-4.538598489281277,54.2244634231333]}},{"type":"Feature","id":"IND","properties":{"ADM0_A3":"IND","NAME":"India","LABELRANK":2,"BBOX_MIN_LNG":68.165039,"BBOX_MIN_LAT":8.07832,"BBOX_MAX_LNG":97.343555,"BBOX_MAX_LAT":35.495898},"geometry":{"type":"Point","coordinates":[79.60298414441053,23.236531581777157]}},{"type":"Feature","id":"IOA","properties":{"ADM0_A3":"IOA","NAME":"Indian Ocean Ter.","LABELRANK":5,"BBOX_MIN_LNG":105.584082,"BBOX_MIN_LAT":-10.56416,"BBOX_MAX_LNG":105.725391,"BBOX_MAX_LAT":-10.430664},"geometry":{"type":"Point","coordinates":[105.66238757210833,-10.492697082385433]}},{"type":"Feature","id":"IOT","properties":{"ADM0_A3":"IOT","NAME":"Br. Indian Ocean Ter.","LABELRANK":5,"BBOX_MIN_LNG":72.349707,"BBOX_MIN_LAT":-7.435352,"BBOX_MAX_LNG":72.498535,"BBOX_MAX_LAT":-7.22041},"geometry":{"type":"Point","coordinates":[72.349707,-7.435352]}},{"type":"Feature","id":"IRL","properties":{"ADM0_A3":"IRL","NAME":"Ireland","LABELRANK":3,"BBOX_MIN_LNG":-10.390234,"BBOX_MIN_LAT":51.47373,"BBOX_MAX_LNG":-6.027393,"BBOX_MAX_LAT":55.36582},"geometry":{"type":"Point","coordinates":[-8.130671545887205,53.200317451615916]}},{"type":"Feature","id":"IRN","properties":{"ADM0_A3":"IRN","NAME":"Iran","LABELRANK":2,"BBOX_MIN_LNG":44.023242,"BBOX_MIN_LAT":25.1021,"BBOX_MAX_LNG":63.305176,"BBOX_MAX_LAT":39.768555},"geometry":{"type":"Point","coordinates":[54.18996811368336,32.774551612598]}},{"type":"Feature","id":"IRQ","properties":{"ADM0_A3":"IRQ","NAME":"Iraq","LABELRANK":3,"BBOX_MIN_LNG":38.773535,"BBOX_MIN_LAT":29.063672,"BBOX_MAX_LNG":48.546484,"BBOX_MAX_LAT":37.371875},"geometry":{"type":"Point","coordinates":[43.72887989337936,33.1097098624768]}},{"type":"Feature","id":"ISL","properties":{"ADM0_A3":"ISL","NAME":"Iceland","LABELRANK":3,"BBOX_MIN_LNG":-24.475684,"BBOX_MIN_LAT":63.406689,"BBOX_MAX_LNG":-13.556104,"BBOX_MAX_LAT":66.526074},"geometry":{"type":"Point","coordinates":[-18.57110802598128,65.02364263482644]}},{"type":"Feature","id":"ISR","properties":{"ADM0_A3":"ISR","NAME":"Israel","LABELRANK":4,"BBOX_MIN_LNG":34.245313,"BBOX_MIN_LAT":29.477344,"BBOX_MAX_LNG":35.887977,"BBOX_MAX_LAT":33.415674},"geometry":{"type":"Point","coordinates":[34.861312,30.914674999999995]}},{"type":"Feature","id":"ITA","properties":{"ADM0_A3":"ITA","NAME":"Italy","LABELRANK":2,"BBOX_MIN_LNG":6.627734,"BBOX_MIN_LAT":37.939111,"BBOX_MAX_LNG":18.48584,"BBOX_MAX_LAT":47.082129},"geometry":{"type":"Point","coordinates":[12.075518136966808,43.64230692811023]}},{"type":"Feature","id":"JAM","properties":{"ADM0_A3":"JAM","NAME":"Jamaica","LABELRANK":4,"BBOX_MIN_LNG":-78.339502,"BBOX_MIN_LAT":17.714941,"BBOX_MAX_LNG":-76.210791,"BBOX_MAX_LAT":18.522217},"geometry":{"type":"Point","coordinates":[-77.31503016718543,18.157203127345593]}},{"type":"Feature","id":"JEY","properties":{"ADM0_A3":"JEY","NAME":"Jersey","LABELRANK":6,"BBOX_MIN_LNG":-2.23584,"BBOX_MIN_LAT":49.169824,"BBOX_MAX_LNG":-2.009912,"BBOX_MAX_LAT":49.266357},"geometry":{"type":"Point","coordinates":[-2.1269061147430275,49.2183891692557]}},{"type":"Feature","id":"JOR","properties":{"ADM0_A3":"JOR","NAME":"Jordan","LABELRANK":4,"BBOX_MIN_LNG":34.950781,"BBOX_MIN_LAT":29.190479,"BBOX_MAX_LNG":39.292773,"BBOX_MAX_LAT":33.372217},"geometry":{"type":"Point","coordinates":[36.77821479246696,31.262576001714113]}},{"type":"Feature","id":"JPN","properties":{"ADM0_A3":"JPN","NAME":"Japan","LABELRANK":2,"BBOX_MIN_LNG":130.889258,"BBOX_MIN_LAT":33.486963,"BBOX_MAX_LNG":141.993164,"BBOX_MAX_LAT":41.505566},"geometry":{"type":"Point","coordinates":[138.03774458801456,36.72250135743053]}},{"type":"Feature","id":"KAS","properties":{"ADM0_A3":"KAS","NAME":"Siachen Glacier","LABELRANK":5,"BBOX_MIN_LNG":76.766895,"BBOX_MIN_LAT":35.109912,"BBOX_MAX_LNG":77.799414,"BBOX_MAX_LAT":35.661719},"geometry":{"type":"Point","coordinates":[77.18008314027038,35.39257977354363]}},{"type":"Feature","id":"KAZ","properties":{"ADM0_A3":"KAZ","NAME":"Kazakhstan","LABELRANK":3,"BBOX_MIN_LNG":46.60918,"BBOX_MIN_LAT":40.608643,"BBOX_MAX_LNG":87.322852,"BBOX_MAX_LAT":55.3896},"geometry":{"type":"Point","coordinates":[67.32329287436173,48.4367178074321]}},{"type":"Feature","id":"KEN","properties":{"ADM0_A3":"KEN","NAME":"Kenya","LABELRANK":2,"BBOX_MIN_LNG":33.9,"BBOX_MIN_LAT":-4.692383,"BBOX_MAX_LNG":41.883984,"BBOX_MAX_LAT":5.492285},"geometry":{"type":"Point","coordinates":[37.795078324800244,0.6017182490203701]}},{"type":"Feature","id":"KGZ","properties":{"ADM0_A3":"KGZ","NAME":"Kyrgyzstan","LABELRANK":4,"BBOX_MIN_LNG":69.229102,"BBOX_MIN_LAT":39.20752,"BBOX_MAX_LNG":80.246191,"BBOX_MAX_LAT":43.240381},"geometry":{"type":"Point","coordinates":[74.5482023249018,41.479093559269714]}},{"type":"Feature","id":"KHM","properties":{"ADM0_A3":"KHM","NAME":"Cambodia","LABELRANK":3,"BBOX_MIN_LNG":102.319727,"BBOX_MIN_LAT":10.41123,"BBOX_MAX_LNG":107.605469,"BBOX_MAX_LAT":14.705078},"geometry":{"type":"Point","coordinates":[104.90872773587787,12.726693100945129]}},{"type":"Feature","id":"KIR","properties":{"ADM0_A3":"KIR","NAME":"Kiribati","LABELRANK":6,"BBOX_MIN_LNG":-157.578955,"BBOX_MIN_LAT":1.731738,"BBOX_MAX_LNG":-157.175781,"BBOX_MAX_LAT":2.029297},"geometry":{"type":"Point","coordinates":[-157.37418699390315,1.8544524935729687]}},{"type":"Feature","id":"KNA","properties":{"ADM0_A3":"KNA","NAME":"St. Kitts and Nevis","LABELRANK":6,"BBOX_MIN_LNG":-62.840479,"BBOX_MIN_LAT":17.224414,"BBOX_MAX_LNG":-62.630664,"BBOX_MAX_LAT":17.402588},"geometry":{"type":"Point","coordinates":[-62.74760909470809,17.326896787029533]}},{"type":"Feature","id":"KOR","properties":{"ADM0_A3":"KOR","NAME":"South Korea","LABELRANK":2,"BBOX_MIN_LNG":126.160547,"BBOX_MIN_LAT":34.314258,"BBOX_MAX_LNG":129.572852,"BBOX_MAX_LAT":38.623437},"geometry":{"type":"Point","coordinates":[127.87206504719346,36.479804337863584]}},{"type":"Feature","id":"KOS","properties":{"ADM0_A3":"KOS","NAME":"Kosovo","LABELRANK":6,"BBOX_MIN_LNG":20.029492,"BBOX_MIN_LAT":41.853809,"BBOX_MAX_LNG":21.75293,"BBOX_MAX_LAT":43.261084},"geometry":{"type":"Point","coordinates":[20.872444564099876,42.57262608130969]}},{"type":"Feature","id":"KWT","properties":{"ADM0_A3":"KWT","NAME":"Kuwait","LABELRANK":6,"BBOX_MIN_LNG":46.531445,"BBOX_MIN_LAT":28.533154,"BBOX_MAX_LNG":48.44248,"BBOX_MAX_LAT":30.097314},"geometry":{"type":"Point","coordinates":[47.56128643317988,29.319130581002224]}},{"type":"Feature","id":"LAO","properties":{"ADM0_A3":"LAO","NAME":"Laos","LABELRANK":4,"BBOX_MIN_LNG":100.114941,"BBOX_MIN_LAT":13.921191,"BBOX_MAX_LNG":107.653125,"BBOX_MAX_LAT":22.495264},"geometry":{"type":"Point","coordinates":[103.71922752535379,18.53933346102259]}},{"type":"Feature","id":"LBN","properties":{"ADM0_A3":"LBN","NAME":"Lebanon","LABELRANK":5,"BBOX_MIN_LNG":35.108594,"BBOX_MIN_LAT":33.075684,"BBOX_MAX_LNG":36.584961,"BBOX_MAX_LAT":34.678711},"geometry":{"type":"Point","coordinates":[35.881364483067166,33.925939380926074]}},{"type":"Feature","id":"LBR","properties":{"ADM0_A3":"LBR","NAME":"Liberia","LABELRANK":4,"BBOX_MIN_LNG":-11.50752,"BBOX_MIN_LAT":4.351318,"BBOX_MAX_LNG":-7.399902,"BBOX_MAX_LAT":8.537695},"geometry":{"type":"Point","coordinates":[-9.323196604266183,6.455436090294833]}},{"type":"Feature","id":"LBY","properties":{"ADM0_A3":"LBY","NAME":"Libya","LABELRANK":3,"BBOX_MIN_LNG":9.310254,"BBOX_MIN_LAT":19.496631,"BBOX_MAX_LNG":25.150488,"BBOX_MAX_LAT":33.181934},"geometry":{"type":"Point","coordinates":[17.980910105383817,27.156076770832186]}},{"type":"Feature","id":"LCA","properties":{"ADM0_A3":"LCA","NAME":"Saint Lucia","LABELRANK":6,"BBOX_MIN_LNG":-61.073145,"BBOX_MIN_LAT":13.717578,"BBOX_MAX_LNG":-60.886768,"BBOX_MAX_LAT":14.093359},"geometry":{"type":"Point","coordinates":[-60.96969452404608,13.894844302449187]}},{"type":"Feature","id":"LIE","properties":{"ADM0_A3":"LIE","NAME":"Liechtenstein","LABELRANK":6,"BBOX_MIN_LNG":9.479492,"BBOX_MIN_LAT":47.057373,"BBOX_MAX_LNG":9.610547,"BBOX_MAX_LAT":47.270752},"geometry":{"type":"Point","coordinates":[9.535735729293245,47.13673000876096]}},{"type":"Feature","id":"LKA","properties":{"ADM0_A3":"LKA","NAME":"Sri Lanka","LABELRANK":3,"BBOX_MIN_LNG":79.707812,"BBOX_MIN_LAT":5.949365,"BBOX_MAX_LNG":81.876953,"BBOX_MAX_LAT":9.812695},"geometry":{"type":"Point","coordinates":[80.70278240020107,7.611470497334505]}},{"type":"Feature","id":"LSO","properties":{"ADM0_A3":"LSO","NAME":"Lesotho","LABELRANK":6,"BBOX_MIN_LNG":27.051758,"BBOX_MIN_LAT":-30.642285,"BBOX_MAX_LNG":29.390723,"BBOX_MAX_LAT":-28.581738},"geometry":{"type":"Point","coordinates":[28.22636435539369,-29.583134834011563]}},{"type":"Feature","id":"LTU","properties":{"ADM0_A3":"LTU","NAME":"Lithuania","LABELRANK":5,"BBOX_MIN_LNG":21.046094,"BBOX_MIN_LAT":53.892969,"BBOX_MAX_LNG":26.775684,"BBOX_MAX_LAT":56.411182},"geometry":{"type":"Point","coordinates":[23.886925385566286,55.340097694761326]}},{"type":"Feature","id":"LUX","properties":{"ADM0_A3":"LUX","NAME":"Luxembourg","LABELRANK":6,"BBOX_MIN_LNG":5.725,"BBOX_MIN_LAT":49.445459,"BBOX_MAX_LNG":6.49375,"BBOX_MAX_LAT":50.167187},"geometry":{"type":"Point","coordinates":[6.071653207297363,49.76817308573401]}},{"type":"Feature","id":"LVA","properties":{"ADM0_A3":"LVA","NAME":"Latvia","LABELRANK":5,"BBOX_MIN_LNG":21.014941,"BBOX_MIN_LAT":55.667529,"BBOX_MAX_LNG":28.202051,"BBOX_MAX_LAT":58.063428},"geometry":{"type":"Point","coordinates":[24.90846273587,56.86064933237396]}},{"type":"Feature","id":"MAC","properties":{"ADM0_A3":"MAC","NAME":"Macao","LABELRANK":4,"BBOX_MIN_LNG":113.478906,"BBOX_MIN_LAT":22.195557,"BBOX_MAX_LNG":113.548145,"BBOX_MAX_LAT":22.245947},"geometry":{"type":"Point","coordinates":[113.50932194507881,22.22311827572476]}},{"type":"Feature","id":"MAF","properties":{"ADM0_A3":"MAF","NAME":"St-Martin","LABELRANK":6,"BBOX_MIN_LNG":-63.123047,"BBOX_MIN_LAT":18.068945,"BBOX_MAX_LNG":-63.009424,"BBOX_MAX_LAT":18.115332},"geometry":{"type":"Point","coordinates":[-63.05972841332255,18.08888730004466]}},{"type":"Feature","id":"MAR","properties":{"ADM0_A3":"MAR","NAME":"Morocco","LABELRANK":3,"BBOX_MIN_LNG":-17.003076,"BBOX_MIN_LAT":21.420703,"BBOX_MAX_LNG":-1.065527,"BBOX_MAX_LAT":35.929883},"geometry":{"type":"Point","coordinates":[-8.323258670316239,30.038028335367645]}},{"type":"Feature","id":"MCO","properties":{"ADM0_A3":"MCO","NAME":"Monaco","LABELRANK":6,"BBOX_MIN_LNG":7.377734,"BBOX_MIN_LAT":43.731738,"BBOX_MAX_LNG":7.438672,"BBOX_MAX_LAT":43.770898},"geometry":{"type":"Point","coordinates":[7.406277680303614,43.75274804579394]}},{"type":"Feature","id":"MDA","properties":{"ADM0_A3":"MDA","NAME":"Moldova","LABELRANK":6,"BBOX_MIN_LNG":26.618945,"BBOX_MIN_LAT":45.450439,"BBOX_MAX_LNG":30.131055,"BBOX_MAX_LAT":48.477734},"geometry":{"type":"Point","coordinates":[28.45223859825748,47.20947751819793]}},{"type":"Feature","id":"MDG","properties":{"ADM0_A3":"MDG","NAME":"Madagascar","LABELRANK":3,"BBOX_MIN_LNG":43.257129,"BBOX_MIN_LAT":-25.570508,"BBOX_MAX_LNG":50.482715,"BBOX_MAX_LAT":-12.07959},"geometry":{"type":"Point","coordinates":[46.68407207605265,-19.470444658786374]}},{"type":"Feature","id":"MDV","properties":{"ADM0_A3":"MDV","NAME":"Maldives","LABELRANK":5,"BBOX_MIN_LNG":73.473047,"BBOX_MIN_LAT":4.155176,"BBOX_MAX_LNG":73.52832,"BBOX_MAX_LAT":4.247656},"geometry":{"type":"Point","coordinates":[73.50333499790256,4.1965331146522855]}},{"type":"Feature","id":"MEX","properties":{"ADM0_A3":"MEX","NAME":"Mexico","LABELRANK":2,"BBOX_MIN_LNG":-117.128271,"BBOX_MIN_LAT":14.54541,"BBOX_MAX_LNG":-86.771777,"BBOX_MAX_LAT":32.715332},"geometry":{"type":"Point","coordinates":[-102.68394536691716,24.183211975410185]}},{"type":"Feature","id":"MHL","properties":{"ADM0_A3":"MHL","NAME":"Marshall Is.","LABELRANK":6,"BBOX_MIN_LNG":171.035742,"BBOX_MIN_LAT":7.06875,"BBOX_MAX_LNG":171.39375,"BBOX_MAX_LAT":7.171777},"geometry":{"type":"Point","coordinates":[171.035742,7.06875]}},{"type":"Feature","id":"MKD","properties":{"ADM0_A3":"MKD","NAME":"North Macedonia","LABELRANK":6,"BBOX_MIN_LNG":20.448633,"BBOX_MIN_LAT":40.849902,"BBOX_MAX_LNG":23.005664,"BBOX_MAX_LAT":42.358154},"geometry":{"type":"Point","coordinates":[21.682868994454655,41.598222723225604]}},{"type":"Feature","id":"MLI","properties":{"ADM0_A3":"MLI","NAME":"Mali","LABELRANK":3,"BBOX_MIN_LNG":-12.280615,"BBOX_MIN_LAT":10.143262,"BBOX_MAX_LNG":4.234668,"BBOX_MAX_LAT":24.995605},"geometry":{"type":"Point","coordinates":[-3.519587610859151,17.444863799884747]}},{"type":"Feature","id":"MLT","properties":{"ADM0_A3":"MLT","NAME":"Malta","LABELRANK":5,"BBOX_MIN_LNG":14.35127,"BBOX_MIN_LAT":35.820215,"BBOX_MAX_LNG":14.566211,"BBOX_MAX_LAT":35.978418},"geometry":{"type":"Point","coordinates":[14.443257304783492,35.89005925381864]}},{"type":"Feature","id":"MMR","properties":{"ADM0_A3":"MMR","NAME":"Myanmar","LABELRANK":3,"BBOX_MIN_LNG":92.17959,"BBOX_MIN_LAT":10.034961,"BBOX_MAX_LNG":101.147266,"BBOX_MAX_LAT":28.517041},"geometry":{"type":"Point","coordinates":[96.48623087907764,21.343864910030035]}},{"type":"Feature","id":"MNE","properties":{"ADM0_A3":"MNE","NAME":"Montenegro","LABELRANK":6,"BBOX_MIN_LNG":18.436328,"BBOX_MIN_LAT":41.869092,"BBOX_MAX_LNG":20.347656,"BBOX_MAX_LAT":43.542334},"geometry":{"type":"Point","coordinates":[19.238956685928976,42.791476037438926]}},{"type":"Feature","id":"MNG","properties":{"ADM0_A3":"MNG","NAME":"Mongolia","LABELRANK":3,"BBOX_MIN_LNG":87.743164,"BBOX_MIN_LAT":41.595508,"BBOX_MAX_LNG":119.897852,"BBOX_MAX_LAT":52.117285},"geometry":{"type":"Point","coordinates":[103.01472163873021,46.96355248577393]}},{"type":"Feature","id":"MNP","properties":{"ADM0_A3":"MNP","NAME":"N. Mariana Is.","LABELRANK":6,"BBOX_MIN_LNG":145.684277,"BBOX_MIN_LAT":15.107227,"BBOX_MAX_LNG":145.821875,"BBOX_MAX_LAT":15.265381},"geometry":{"type":"Point","coordinates":[145.74371661676173,15.18094940443005]}},{"type":"Feature","id":"MOZ","properties":{"ADM0_A3":"MOZ","NAME":"Mozambique","LABELRANK":3,"BBOX_MIN_LNG":30.221777,"BBOX_MIN_LAT":-26.861621,"BBOX_MAX_LNG":40.844531,"BBOX_MAX_LAT":-10.464355},"geometry":{"type":"Point","coordinates":[35.498193860222614,-17.413070230018633]}},{"type":"Feature","id":"MRT","properties":{"ADM0_A3":"MRT","NAME":"Mauritania","LABELRANK":3,"BBOX_MIN_LNG":-17.063965,"BBOX_MIN_LAT":14.745361,"BBOX_MAX_LNG":-4.822607,"BBOX_MAX_LAT":27.285937},"geometry":{"type":"Point","coordinates":[-10.334977112857265,20.344975000840915]}},{"type":"Feature","id":"MSR","properties":{"ADM0_A3":"MSR","NAME":"Montserrat","LABELRANK":6,"BBOX_MIN_LNG":-62.223047,"BBOX_MIN_LAT":16.681201,"BBOX_MAX_LNG":-62.148438,"BBOX_MAX_LAT":16.80957},"geometry":{"type":"Point","coordinates":[-62.18518569108009,16.739421811734843]}},{"type":"Feature","id":"MUS","properties":{"ADM0_A3":"MUS","NAME":"Mauritius","LABELRANK":5,"BBOX_MIN_LNG":57.317676,"BBOX_MIN_LAT":-20.513184,"BBOX_MAX_LNG":57.791992,"BBOX_MAX_LAT":-19.989941},"geometry":{"type":"Point","coordinates":[57.571174579810624,-20.277851839546447]}},{"type":"Feature","id":"MWI","properties":{"ADM0_A3":"MWI","NAME":"Malawi","LABELRANK":6,"BBOX_MIN_LNG":32.67041,"BBOX_MIN_LAT":-17.131055,"BBOX_MAX_LNG":35.892773,"BBOX_MAX_LAT":-9.39502},"geometry":{"type":"Point","coordinates":[34.29207388409648,-13.241916726570867]}},{"type":"Feature","id":"MYS","properties":{"ADM0_A3":"MYS","NAME":"Malaysia","LABELRANK":3,"BBOX_MIN_LNG":109.538965,"BBOX_MIN_LAT":0.861963,"BBOX_MAX_LNG":119.266309,"BBOX_MAX_LAT":6.990234},"geometry":{"type":"Point","coordinates":[114.72715980865937,3.619425451996639]}},{"type":"Feature","id":"NAM","properties":{"ADM0_A3":"NAM","NAME":"Namibia","LABELRANK":3,"BBOX_MIN_LNG":11.72168,"BBOX_MIN_LAT":-28.93877,"BBOX_MAX_LNG":25.258789,"BBOX_MAX_LAT":-16.967676},"geometry":{"type":"Point","coordinates":[17.21696211366325,-22.245344512360212]}},{"type":"Feature","id":"NCL","properties":{"ADM0_A3":"NCL","NAME":"New Caledonia","LABELRANK":3,"BBOX_MIN_LNG":164.037305,"BBOX_MIN_LAT":-22.376172,"BBOX_MAX_LNG":167.004297,"BBOX_MAX_LAT":-20.141504},"geometry":{"type":"Point","coordinates":[165.48942647669298,-21.32830529286943]}},{"type":"Feature","id":"NER","properties":{"ADM0_A3":"NER","NAME":"Niger","LABELRANK":3,"BBOX_MIN_LNG":0.163867,"BBOX_MIN_LAT":11.696289,"BBOX_MAX_LNG":15.963184,"BBOX_MAX_LAT":23.517871},"geometry":{"type":"Point","coordinates":[9.412995031375548,17.48127851441286]}},{"type":"Feature","id":"NFK","properties":{"ADM0_A3":"NFK","NAME":"Norfolk Island","LABELRANK":5,"BBOX_MIN_LNG":167.906152,"BBOX_MIN_LAT":-29.096289,"BBOX_MAX_LNG":167.99043,"BBOX_MAX_LAT":-29.013965},"geometry":{"type":"Point","coordinates":[167.94921748597022,-29.05146512794707]}},{"type":"Feature","id":"NGA","properties":{"ADM0_A3":"NGA","NAME":"Nigeria","LABELRANK":2,"BBOX_MIN_LNG":2.686035,"BBOX_MIN_LAT":4.277393,"BBOX_MAX_LNG":14.627148,"BBOX_MAX_LAT":13.872852},"geometry":{"type":"Point","coordinates":[8.094392215115043,9.617983162183812]}},{"type":"Feature","id":"NIC","properties":{"ADM0_A3":"NIC","NAME":"Nicaragua","LABELRANK":5,"BBOX_MIN_LNG":-87.670166,"BBOX_MIN_LAT":10.735352,"BBOX_MAX_LNG":-83.15752,"BBOX_MAX_LAT":15.008057},"geometry":{"type":"Point","coordinates":[-85.02979196904525,12.852982987272355]}},{"type":"Feature","id":"NIU","properties":{"ADM0_A3":"NIU","NAME":"Niue","LABELRANK":4,"BBOX_MIN_LNG":-169.94834,"BBOX_MIN_LAT":-19.137891,"BBOX_MAX_LNG":-169.793408,"BBOX_MAX_LAT":-18.966016},"geometry":{"type":"Point","coordinates":[-169.86994882675558,-19.049472460539146]}},{"type":"Feature","id":"NLD","properties":{"ADM0_A3":"NLD","NAME":"Netherlands","LABELRANK":5,"BBOX_MIN_LNG":3.448926,"BBOX_MIN_LAT":50.750439,"BBOX_MAX_LNG":7.197266,"BBOX_MAX_LAT":53.441162},"geometry":{"type":"Point","coordinates":[5.646824371937347,52.29452803116983]}},{"type":"Feature","id":"NOR","properties":{"ADM0_A3":"NOR","NAME":"Norway","LABELRANK":3,"BBOX_MIN_LNG":4.910352,"BBOX_MIN_LAT":58.020947,"BBOX_MAX_LNG":30.960645,"BBOX_MAX_LAT":71.091309},"geometry":{"type":"Point","coordinates":[10.015962156249998,61.49276190625]}},{"type":"Feature","id":"NPL","properties":{"ADM0_A3":"NPL","NAME":"Nepal","LABELRANK":3,"BBOX_MIN_LNG":80.05166,"BBOX_MIN_LAT":26.360303,"BBOX_MAX_LNG":88.161523,"BBOX_MAX_LAT":30.3875},"geometry":{"type":"Point","coordinates":[83.90025046536502,28.261346423175226]}},{"type":"Feature","id":"NRU","properties":{"ADM0_A3":"NRU","NAME":"Nauru","LABELRANK":6,"BBOX_MIN_LNG":166.907031,"BBOX_MIN_LAT":-0.550781,"BBOX_MAX_LNG":166.958398,"BBOX_MAX_LAT":-0.489355},"geometry":{"type":"Point","coordinates":[166.93256804685066,-0.5191262577685437]}},{"type":"Feature","id":"NZL","properties":{"ADM0_A3":"NZL","NAME":"New Zealand","LABELRANK":2,"BBOX_MIN_LNG":166.477637,"BBOX_MIN_LAT":-46.630664,"BBOX_MAX_LNG":174.370117,"BBOX_MAX_LAT":-40.490039},"geometry":{"type":"Point","coordinates":[170.4873934446856,-44.03351974391815]}},{"type":"Feature","id":"OMN","properties":{"ADM0_A3":"OMN","NAME":"Oman","LABELRANK":4,"BBOX_MIN_LNG":51.977637,"BBOX_MIN_LAT":16.648389,"BBOX_MAX_LNG":59.8375,"BBOX_MAX_LAT":24.979199},"geometry":{"type":"Point","coordinates":[56.100126506405196,20.6159524485226]}},{"type":"Feature","id":"PAK","properties":{"ADM0_A3":"PAK","NAME":"Pakistan","LABELRANK":2,"BBOX_MIN_LNG":60.843359,"BBOX_MIN_LAT":23.753369,"BBOX_MAX_LNG":77.048633,"BBOX_MAX_LAT":37.03667},"geometry":{"type":"Point","coordinates":[69.42801007543639,30.12115072211623]}},{"type":"Feature","id":"PAN","properties":{"ADM0_A3":"PAN","NAME":"Panama","LABELRANK":4,"BBOX_MIN_LNG":-83.027344,"BBOX_MIN_LAT":7.220068,"BBOX_MAX_LNG":-77.195996,"BBOX_MAX_LAT":9.597852},"geometry":{"type":"Point","coordinates":[-80.11178696872626,8.525505337480192]}},{"type":"Feature","id":"PCN","properties":{"ADM0_A3":"PCN","NAME":"Pitcairn Is.","LABELRANK":4,"BBOX_MIN_LNG":-128.350195,"BBOX_MIN_LAT":-24.412598,"BBOX_MAX_LNG":-128.290088,"BBOX_MAX_LAT":-24.323242},"geometry":{"type":"Point","coordinates":[-128.31704081937468,-24.365010717290556]}},{"type":"Feature","id":"PER","properties":{"ADM0_A3":"PER","NAME":"Peru","LABELRANK":2,"BBOX_MIN_LNG":-81.336621,"BBOX_MIN_LAT":-18.345605,"BBOX_MAX_LNG":-68.685254,"BBOX_MAX_LAT":-0.041748},"geometry":{"type":"Point","coordinates":[-74.36290806599912,-9.237160143329236]}},{"type":"Feature","id":"PHL","properties":{"ADM0_A3":"PHL","NAME":"Philippines","LABELRANK":2,"BBOX_MIN_LNG":119.761816,"BBOX_MIN_LAT":12.56709,"BBOX_MAX_LNG":124.142773,"BBOX_MAX_LAT":18.615283},"geometry":{"type":"Point","coordinates":[121.41315646320984,15.97418324880457]}},{"type":"Feature","id":"PLW","properties":{"ADM0_A3":"PLW","NAME":"Palau","LABELRANK":6,"BBOX_MIN_LNG":134.50625,"BBOX_MIN_LAT":7.360645,"BBOX_MAX_LNG":134.65957,"BBOX_MAX_LAT":7.712109},"geometry":{"type":"Point","coordinates":[134.5804837782275,7.512976723888499]}},{"type":"Feature","id":"PNG","properties":{"ADM0_A3":"PNG","NAME":"Papua New Guinea","LABELRANK":2,"BBOX_MIN_LNG":140.862305,"BBOX_MIN_LAT":-10.654883,"BBOX_MAX_LNG":150.849512,"BBOX_MAX_LAT":-2.609766},"geometry":{"type":"Point","coordinates":[144.24888238948654,-6.615475461039841]}},{"type":"Feature","id":"POL","properties":{"ADM0_A3":"POL","NAME":"Poland","LABELRANK":3,"BBOX_MIN_LNG":14.128613,"BBOX_MIN_LAT":49.020752,"BBOX_MAX_LNG":24.105762,"BBOX_MAX_LAT":54.838184},"geometry":{"type":"Point","coordinates":[19.375807712094335,52.19096349547795]}},{"type":"Feature","id":"PRI","properties":{"ADM0_A3":"PRI","NAME":"Puerto Rico","LABELRANK":5,"BBOX_MIN_LNG":-67.264062,"BBOX_MIN_LAT":17.947266,"BBOX_MAX_LNG":-65.62085,"BBOX_MAX_LAT":18.522168},"geometry":{"type":"Point","coordinates":[-66.48210735654469,18.23059382400627]}},{"type":"Feature","id":"PRK","properties":{"ADM0_A3":"PRK","NAME":"North Korea","LABELRANK":3,"BBOX_MIN_LNG":124.348633,"BBOX_MIN_LAT":37.719043,"BBOX_MAX_LNG":130.687305,"BBOX_MAX_LAT":42.998145},"geometry":{"type":"Point","coordinates":[127.2102045371343,40.18654962854969]}},{"type":"Feature","id":"PRT","properties":{"ADM0_A3":"PRT","NAME":"Portugal","LABELRANK":2,"BBOX_MIN_LNG":-9.479736,"BBOX_MIN_LAT":37.00542,"BBOX_MAX_LNG":-6.2125,"BBOX_MAX_LAT":42.137402},"geometry":{"type":"Point","coordinates":[-7.973940688412248,39.71862886426839]}},{"type":"Feature","id":"PRY","properties":{"ADM0_A3":"PRY","NAME":"Paraguay","LABELRANK":4,"BBOX_MIN_LNG":-62.650977,"BBOX_MIN_LAT":-27.553809,"BBOX_MAX_LNG":-54.241797,"BBOX_MAX_LAT":-19.28623},"geometry":{"type":"Point","coordinates":[-58.37837297737402,-23.27749177422389]}},{"type":"Feature","id":"PSX","properties":{"ADM0_A3":"PSX","NAME":"Palestine","LABELRANK":5,"BBOX_MIN_LNG":34.872754,"BBOX_MIN_LAT":31.351318,"BBOX_MAX_LNG":35.57207,"BBOX_MAX_LAT":32.534424},"geometry":{"type":"Point","coordinates":[35.24793415175123,31.9496198637206]}},{"type":"Feature","id":"PYF","properties":{"ADM0_A3":"PYF","NAME":"Fr. Polynesia","LABELRANK":4,"BBOX_MIN_LNG":-149.63501,"BBOX_MIN_LAT":-17.862305,"BBOX_MAX_LNG":-149.150879,"BBOX_MAX_LAT":-17.496387},"geometry":{"type":"Point","coordinates":[-149.42020723742687,-17.663375446343775]}},{"type":"Feature","id":"QAT","properties":{"ADM0_A3":"QAT","NAME":"Qatar","LABELRANK":5,"BBOX_MIN_LNG":50.75459,"BBOX_MIN_LAT":24.564648,"BBOX_MAX_LNG":51.608887,"BBOX_MAX_LAT":26.153271},"geometry":{"type":"Point","coordinates":[51.184869174149505,25.30799392637112]}},{"type":"Feature","id":"ROU","properties":{"ADM0_A3":"ROU","NAME":"Romania","LABELRANK":3,"BBOX_MIN_LNG":20.241797,"BBOX_MIN_LAT":43.670801,"BBOX_MAX_LNG":29.705859,"BBOX_MAX_LAT":48.263477},"geometry":{"type":"Point","coordinates":[24.967930016228994,45.8863277574576]}},{"type":"Feature","id":"RUS","properties":{"ADM0_A3":"RUS","NAME":"Russia","LABELRANK":2,"BBOX_MIN_LNG":27.351953,"BBOX_MIN_LAT":41.199268,"BBOX_MAX_LNG":180,"BBOX_MAX_LAT":77.730469},"geometry":{"type":"Point","coordinates":[100.89985248497126,64.05024423052383]}},{"type":"Feature","id":"RWA","properties":{"ADM0_A3":"RWA","NAME":"Rwanda","LABELRANK":3,"BBOX_MIN_LNG":28.857617,"BBOX_MIN_LAT":-2.808594,"BBOX_MAX_LNG":30.876563,"BBOX_MAX_LAT":-1.063086},"geometry":{"type":"Point","coordinates":[29.91983614179334,-1.9904742357345506]}},{"type":"Feature","id":"SAH","properties":{"ADM0_A3":"SAH","NAME":"W. Sahara","LABELRANK":7,"BBOX_MIN_LNG":-17.098779,"BBOX_MIN_LAT":20.806152,"BBOX_MAX_LNG":-8.682129,"BBOX_MAX_LAT":27.656445},"geometry":{"type":"Point","coordinates":[-12.193957513326342,24.273183420714805]}},{"type":"Feature","id":"SAU","properties":{"ADM0_A3":"SAU","NAME":"Saudi Arabia","LABELRANK":2,"BBOX_MIN_LNG":34.616211,"BBOX_MIN_LAT":16.371777,"BBOX_MAX_LNG":55.641016,"BBOX_MAX_LAT":32.124512},"geometry":{"type":"Point","coordinates":[44.47365721323004,24.2808548150558]}},{"type":"Feature","id":"SDN","properties":{"ADM0_A3":"SDN","NAME":"Sudan","LABELRANK":3,"BBOX_MIN_LNG":21.825293,"BBOX_MIN_LAT":8.665625,"BBOX_MAX_LNG":38.609473,"BBOX_MAX_LAT":22.202441},"geometry":{"type":"Point","coordinates":[29.956840883344654,16.07778275688071]}},{"type":"Feature","id":"SDS","properties":{"ADM0_A3":"SDS","NAME":"S. Sudan","LABELRANK":3,"BBOX_MIN_LNG":24.147363,"BBOX_MIN_LAT":3.490723,"BBOX_MAX_LNG":35.268359,"BBOX_MAX_LAT":12.223096},"geometry":{"type":"Point","coordinates":[30.24634655749324,7.320207724628351]}},{"type":"Feature","id":"SEN","properties":{"ADM0_A3":"SEN","NAME":"Senegal","LABELRANK":3,"BBOX_MIN_LNG":-17.535645,"BBOX_MIN_LAT":12.328027,"BBOX_MAX_LNG":-11.382422,"BBOX_MAX_LAT":16.678906},"geometry":{"type":"Point","coordinates":[-14.475536077755747,14.374634000126242]}},{"type":"Feature","id":"SGP","properties":{"ADM0_A3":"SGP","NAME":"Singapore","LABELRANK":6,"BBOX_MIN_LNG":103.650195,"BBOX_MIN_LAT":1.265381,"BBOX_MAX_LNG":103.996387,"BBOX_MAX_LAT":1.44707},"geometry":{"type":"Point","coordinates":[103.81725596399545,1.3587618277413287]}},{"type":"Feature","id":"SGS","properties":{"ADM0_A3":"SGS","NAME":"S. Geo. and the Is.","LABELRANK":4,"BBOX_MIN_LNG":-38.017432,"BBOX_MIN_LAT":-54.866797,"BBOX_MAX_LNG":-35.798584,"BBOX_MAX_LAT":-53.984082},"geometry":{"type":"Point","coordinates":[-36.68648992248822,-54.3663704479058]}},{"type":"Feature","id":"SHN","properties":{"ADM0_A3":"SHN","NAME":"Saint Helena","LABELRANK":6,"BBOX_MIN_LNG":-5.78252,"BBOX_MIN_LAT":-16.004004,"BBOX_MAX_LNG":-5.659717,"BBOX_MAX_LAT":-15.906152},"geometry":{"type":"Point","coordinates":[-5.716188144572223,-15.958909892151615]}},{"type":"Feature","id":"SLB","properties":{"ADM0_A3":"SLB","NAME":"Solomon Is.","LABELRANK":3,"BBOX_MIN_LNG":159.607422,"BBOX_MIN_LAT":-9.928613,"BBOX_MAX_LNG":160.818945,"BBOX_MAX_LAT":-9.268652},"geometry":{"type":"Point","coordinates":[160.16903038230663,-9.624515284135638]}},{"type":"Feature","id":"SLE","properties":{"ADM0_A3":"SLE","NAME":"Sierra Leone","LABELRANK":4,"BBOX_MIN_LNG":-13.292676,"BBOX_MIN_LAT":6.906543,"BBOX_MAX_LNG":-10.283203,"BBOX_MAX_LAT":9.996533},"geometry":{"type":"Point","coordinates":[-11.785152552959792,8.574039316887276]}},{"type":"Feature","id":"SLV","properties":{"ADM0_A3":"SLV","NAME":"El Salvador","LABELRANK":6,"BBOX_MIN_LNG":-90.105908,"BBOX_MIN_LAT":13.164014,"BBOX_MAX_LNG":-87.715332,"BBOX_MAX_LAT":14.431104},"geometry":{"type":"Point","coordinates":[-88.87198537879712,13.73993022904524]}},{"type":"Feature","id":"SMR","properties":{"ADM0_A3":"SMR","NAME":"San Marino","LABELRANK":6,"BBOX_MIN_LNG":12.396875,"BBOX_MIN_LAT":43.894092,"BBOX_MAX_LNG":12.514648,"BBOX_MAX_LAT":43.989746},"geometry":{"type":"Point","coordinates":[12.45922574105293,43.94188253315259]}},{"type":"Feature","id":"SOL","properties":{"ADM0_A3":"SOL","NAME":"Somaliland","LABELRANK":5,"BBOX_MIN_LNG":42.656445,"BBOX_MIN_LAT":7.99707,"BBOX_MAX_LNG":48.938574,"BBOX_MAX_LAT":11.499805},"geometry":{"type":"Point","coordinates":[46.25149887418838,9.736181755228692]}},{"type":"Feature","id":"SOM","properties":{"ADM0_A3":"SOM","NAME":"Somalia","LABELRANK":6,"BBOX_MIN_LNG":40.964453,"BBOX_MIN_LAT":-1.695312,"BBOX_MAX_LNG":51.390234,"BBOX_MAX_LAT":11.983691},"geometry":{"type":"Point","coordinates":[45.721100357482015,4.775594229956016]}},{"type":"Feature","id":"SPM","properties":{"ADM0_A3":"SPM","NAME":"St. Pierre and Miquelon","LABELRANK":4,"BBOX_MIN_LNG":-56.386914,"BBOX_MIN_LAT":46.795312,"BBOX_MAX_LNG":-56.255469,"BBOX_MAX_LAT":47.098975},"geometry":{"type":"Point","coordinates":[-56.32695758383454,46.94636844354181]}},{"type":"Feature","id":"SRB","properties":{"ADM0_A3":"SRB","NAME":"Serbia","LABELRANK":5,"BBOX_MIN_LNG":18.839063,"BBOX_MIN_LAT":42.242139,"BBOX_MAX_LNG":22.976855,"BBOX_MAX_LAT":46.169189},"geometry":{"type":"Point","coordinates":[20.7810408238191,44.243277580937736]}},{"type":"Feature","id":"STP","properties":{"ADM0_A3":"STP","NAME":"São Tomé and Principe","LABELRANK":6,"BBOX_MIN_LNG":6.468164,"BBOX_MIN_LAT":0.047363,"BBOX_MAX_LNG":6.75,"BBOX_MAX_LAT":0.404395},"geometry":{"type":"Point","coordinates":[6.606592727301962,0.23811584136008393]}},{"type":"Feature","id":"SUR","properties":{"ADM0_A3":"SUR","NAME":"Suriname","LABELRANK":4,"BBOX_MIN_LNG":-58.054492,"BBOX_MIN_LAT":1.842236,"BBOX_MAX_LNG":-53.990479,"BBOX_MAX_LAT":5.993457},"geometry":{"type":"Point","coordinates":[-55.91230117851249,4.1325210100112795]}},{"type":"Feature","id":"SVK","properties":{"ADM0_A3":"SVK","NAME":"Slovakia","LABELRANK":6,"BBOX_MIN_LNG":16.862695,"BBOX_MIN_LAT":47.763428,"BBOX_MAX_LNG":22.538672,"BBOX_MAX_LAT":49.597705},"geometry":{"type":"Point","coordinates":[19.4840436925614,48.71029320746508]}},{"type":"Feature","id":"SVN","properties":{"ADM0_A3":"SVN","NAME":"Slovenia","LABELRANK":6,"BBOX_MIN_LNG":13.378223,"BBOX_MIN_LAT":45.428369,"BBOX_MAX_LNG":16.516211,"BBOX_MAX_LAT":46.863281},"geometry":{"type":"Point","coordinates":[14.806417250703008,46.11857668612447]}},{"type":"Feature","id":"SWE","properties":{"ADM0_A3":"SWE","NAME":"Sweden","LABELRANK":3,"BBOX_MIN_LNG":11.147168,"BBOX_MIN_LAT":55.346387,"BBOX_MAX_LNG":24.155469,"BBOX_MAX_LAT":69.036865},"geometry":{"type":"Point","coordinates":[16.988102194483332,63.444212239046074]}},{"type":"Feature","id":"SWZ","properties":{"ADM0_A3":"SWZ","NAME":"eSwatini","LABELRANK":4,"BBOX_MIN_LNG":30.7875,"BBOX_MIN_LAT":-27.309961,"BBOX_MAX_LNG":32.112891,"BBOX_MAX_LAT":-25.742969},"geometry":{"type":"Point","coordinates":[31.481971197988205,-26.560366224718916]}},{"type":"Feature","id":"SXM","properties":{"ADM0_A3":"SXM","NAME":"Sint Maarten","LABELRANK":6,"BBOX_MIN_LNG":-63.124707,"BBOX_MIN_LAT":18.019189,"BBOX_MAX_LNG":-63.011182,"BBOX_MAX_LAT":18.068945},"geometry":{"type":"Point","coordinates":[-63.05713422143258,18.050818228100912]}},{"type":"Feature","id":"SYC","properties":{"ADM0_A3":"SYC","NAME":"Seychelles","LABELRANK":6,"BBOX_MIN_LNG":55.383398,"BBOX_MIN_LAT":-4.785547,"BBOX_MAX_LNG":55.542969,"BBOX_MAX_LAT":-4.558789},"geometry":{"type":"Point","coordinates":[55.47603477299984,-4.6609973134331515]}},{"type":"Feature","id":"SYR","properties":{"ADM0_A3":"SYR","NAME":"Syria","LABELRANK":3,"BBOX_MIN_LNG":35.764453,"BBOX_MIN_LAT":32.317285,"BBOX_MAX_LNG":42.359082,"BBOX_MAX_LAT":37.297266},"geometry":{"type":"Point","coordinates":[38.51463593575581,35.04780133349761]}},{"type":"Feature","id":"TCA","properties":{"ADM0_A3":"TCA","NAME":"Turks and Caicos Is.","LABELRANK":6,"BBOX_MIN_LNG":-71.847656,"BBOX_MIN_LAT":21.751709,"BBOX_MAX_LNG":-71.636914,"BBOX_MAX_LAT":21.8521},"geometry":{"type":"Point","coordinates":[-71.7414072511568,21.811698709623435]}},{"type":"Feature","id":"TCD","properties":{"ADM0_A3":"TCD","NAME":"Chad","LABELRANK":3,"BBOX_MIN_LNG":13.448242,"BBOX_MIN_LAT":7.475293,"BBOX_MAX_LNG":23.983398,"BBOX_MAX_LAT":23.445215},"geometry":{"type":"Point","coordinates":[18.649521647391115,15.440347720046027]}},{"type":"Feature","id":"TGO","properties":{"ADM0_A3":"TGO","NAME":"Togo","LABELRANK":6,"BBOX_MIN_LNG":-0.090186,"BBOX_MIN_LAT":6.089404,"BBOX_MAX_LNG":1.77793,"BBOX_MAX_LAT":11.115625},"geometry":{"type":"Point","coordinates":[0.9615597301144514,8.532395494717889]}},{"type":"Feature","id":"THA","properties":{"ADM0_A3":"THA","NAME":"Thailand","LABELRANK":3,"BBOX_MIN_LNG":97.373926,"BBOX_MIN_LAT":5.636768,"BBOX_MAX_LNG":105.641016,"BBOX_MAX_LAT":20.424414},"geometry":{"type":"Point","coordinates":[101.00710584260679,15.201988667396495]}},{"type":"Feature","id":"TJK","properties":{"ADM0_A3":"TJK","NAME":"Tajikistan","LABELRANK":4,"BBOX_MIN_LNG":67.349609,"BBOX_MIN_LAT":36.684033,"BBOX_MAX_LNG":75.11875,"BBOX_MAX_LAT":41.035107},"geometry":{"type":"Point","coordinates":[71.00735437274146,38.54429179789221]}},{"type":"Feature","id":"TKM","properties":{"ADM0_A3":"TKM","NAME":"Turkmenistan","LABELRANK":4,"BBOX_MIN_LNG":52.493848,"BBOX_MIN_LAT":35.170801,"BBOX_MAX_LNG":66.629297,"BBOX_MAX_LAT":42.778467},"geometry":{"type":"Point","coordinates":[59.33521258351826,39.16976068955749]}},{"type":"Feature","id":"TLS","properties":{"ADM0_A3":"TLS","NAME":"Timor-Leste","LABELRANK":5,"BBOX_MIN_LNG":124.915039,"BBOX_MIN_LAT":-9.511914,"BBOX_MAX_LNG":127.296094,"BBOX_MAX_LAT":-8.315723},"geometry":{"type":"Point","coordinates":[125.9226856397706,-8.810026811186011]}},{"type":"Feature","id":"TON","properties":{"ADM0_A3":"TON","NAME":"Tonga","LABELRANK":4,"BBOX_MIN_LNG":-175.362354,"BBOX_MIN_LAT":-21.263672,"BBOX_MAX_LNG":-175.078174,"BBOX_MAX_LAT":-21.068262},"geometry":{"type":"Point","coordinates":[-175.2171146561239,-21.166635460553252]}},{"type":"Feature","id":"TTO","properties":{"ADM0_A3":"TTO","NAME":"Trinidad and Tobago","LABELRANK":5,"BBOX_MIN_LNG":-61.906104,"BBOX_MIN_LAT":10.064648,"BBOX_MAX_LNG":-60.917627,"BBOX_MAX_LAT":10.840234},"geometry":{"type":"Point","coordinates":[-61.29299231025059,10.421336655954617]}},{"type":"Feature","id":"TUN","properties":{"ADM0_A3":"TUN","NAME":"Tunisia","LABELRANK":3,"BBOX_MIN_LNG":7.495605,"BBOX_MIN_LAT":30.229395,"BBOX_MAX_LNG":11.535938,"BBOX_MAX_LAT":37.340381},"geometry":{"type":"Point","coordinates":[9.54626561251663,34.170631360334156]}},{"type":"Feature","id":"TUR","properties":{"ADM0_A3":"TUR","NAME":"Turkey","LABELRANK":2,"BBOX_MIN_LNG":26.095996,"BBOX_MIN_LAT":35.831445,"BBOX_MAX_LNG":44.817188,"BBOX_MAX_LAT":42.063281},"geometry":{"type":"Point","coordinates":[35.42778790139931,39.030246616887794]}},{"type":"Feature","id":"TUV","properties":{"ADM0_A3":"TUV","NAME":"Tuvalu","LABELRANK":6,"BBOX_MIN_LNG":179.195703,"BBOX_MIN_LAT":-8.534961,"BBOX_MAX_LNG":179.216602,"BBOX_MAX_LAT":-8.466309},"geometry":{"type":"Point","coordinates":[179.20556531387598,-8.503452835141953]}},{"type":"Feature","id":"TWN","properties":{"ADM0_A3":"TWN","NAME":"Taiwan","LABELRANK":3,"BBOX_MIN_LNG":120.072461,"BBOX_MIN_LAT":21.925,"BBOX_MAX_LNG":121.929004,"BBOX_MAX_LAT":25.276904},"geometry":{"type":"Point","coordinates":[120.96346405432715,23.758607655327058]}},{"type":"Feature","id":"TZA","properties":{"ADM0_A3":"TZA","NAME":"Tanzania","LABELRANK":3,"BBOX_MIN_LNG":29.323438,"BBOX_MIN_LAT":-11.716211,"BBOX_MAX_LNG":40.463574,"BBOX_MAX_LAT":-0.994922},"geometry":{"type":"Point","coordinates":[34.803881352624465,-6.297100528822773]}},{"type":"Feature","id":"UGA","properties":{"ADM0_A3":"UGA","NAME":"Uganda","LABELRANK":3,"BBOX_MIN_LNG":29.561914,"BBOX_MIN_LAT":-1.469922,"BBOX_MAX_LNG":34.978223,"BBOX_MAX_LAT":4.220215},"geometry":{"type":"Point","coordinates":[32.369293427332416,1.2758598765848002]}},{"type":"Feature","id":"UKR","properties":{"ADM0_A3":"UKR","NAME":"Ukraine","LABELRANK":3,"BBOX_MIN_LNG":22.131836,"BBOX_MIN_LAT":45.234131,"BBOX_MAX_LNG":40.12832,"BBOX_MAX_LAT":52.353564},"geometry":{"type":"Point","coordinates":[31.22152835172018,49.22585149213552]}},{"type":"Feature","id":"URY","properties":{"ADM0_A3":"URY","NAME":"Uruguay","LABELRANK":4,"BBOX_MIN_LNG":-58.438135,"BBOX_MIN_LAT":-34.932813,"BBOX_MAX_LNG":-53.125586,"BBOX_MAX_LAT":-30.101074},"geometry":{"type":"Point","coordinates":[-56.014559483551444,-32.82149773721861]}},{"type":"Feature","id":"USA","properties":{"ADM0_A3":"USA","NAME":"United States","LABELRANK":2,"BBOX_MIN_LNG":-124.709961,"BBOX_MIN_LAT":25.133252,"BBOX_MAX_LNG":-66.987012,"BBOX_MAX_LAT":49.369678},"geometry":{"type":"Point","coordinates":[-99.31357624397224,40.13695837442786]}},{"type":"Feature","id":"UZB","properties":{"ADM0_A3":"UZB","NAME":"Uzbekistan","LABELRANK":3,"BBOX_MIN_LNG":55.975684,"BBOX_MIN_LAT":37.172217,"BBOX_MAX_LNG":73.136914,"BBOX_MAX_LAT":45.555371},"geometry":{"type":"Point","coordinates":[63.05104518767579,41.83470611852933]}},{"type":"Feature","id":"VAT","properties":{"ADM0_A3":"VAT","NAME":"Vatican","LABELRANK":6,"BBOX_MIN_LNG":12.427539,"BBOX_MIN_LAT":41.897559,"BBOX_MAX_LNG":12.43916,"BBOX_MAX_LAT":41.906201},"geometry":{"type":"Point","coordinates":[12.433871606721938,41.90175018240726]}},{"type":"Feature","id":"VCT","properties":{"ADM0_A3":"VCT","NAME":"St. Vin. and Gren.","LABELRANK":6,"BBOX_MIN_LNG":-61.277295,"BBOX_MIN_LAT":13.142285,"BBOX_MAX_LNG":-61.124023,"BBOX_MAX_LAT":13.35874},"geometry":{"type":"Point","coordinates":[-61.19575856856944,13.254131169579257]}},{"type":"Feature","id":"VEN","properties":{"ADM0_A3":"VEN","NAME":"Venezuela","LABELRANK":3,"BBOX_MIN_LNG":-73.366211,"BBOX_MIN_LAT":0.687988,"BBOX_MAX_LNG":-59.828906,"BBOX_MAX_LAT":12.177881},"geometry":{"type":"Point","coordinates":[-66.19245536461696,7.137285402123517]}},{"type":"Feature","id":"VGB","properties":{"ADM0_A3":"VGB","NAME":"British Virgin Is.","LABELRANK":6,"BBOX_MIN_LNG":-64.695117,"BBOX_MIN_LAT":18.399121,"BBOX_MAX_LNG":-64.545166,"BBOX_MAX_LAT":18.446289},"geometry":{"type":"Point","coordinates":[-64.62140665521365,18.422996891199663]}},{"type":"Feature","id":"VIR","properties":{"ADM0_A3":"VIR","NAME":"U.S. Virgin Is.","LABELRANK":6,"BBOX_MIN_LNG":-64.889111,"BBOX_MIN_LAT":17.701709,"BBOX_MAX_LNG":-64.580469,"BBOX_MAX_LAT":17.794336},"geometry":{"type":"Point","coordinates":[-64.77163043084026,17.741287428798895]}},{"type":"Feature","id":"VNM","properties":{"ADM0_A3":"VNM","NAME":"Vietnam","LABELRANK":2,"BBOX_MIN_LNG":102.127441,"BBOX_MIN_LAT":8.583252,"BBOX_MAX_LNG":109.444922,"BBOX_MAX_LAT":23.345215},"geometry":{"type":"Point","coordinates":[105.32883893750001,21.846186312500006]}},{"type":"Feature","id":"VUT","properties":{"ADM0_A3":"VUT","NAME":"Vanuatu","LABELRANK":4,"BBOX_MIN_LNG":166.526074,"BBOX_MIN_LAT":-15.634863,"BBOX_MAX_LNG":167.200781,"BBOX_MAX_LAT":-14.636523},"geometry":{"type":"Point","coordinates":[166.8498722086826,-15.225886447742823]}},{"type":"Feature","id":"WLF","properties":{"ADM0_A3":"WLF","NAME":"Wallis and Futuna Is.","LABELRANK":4,"BBOX_MIN_LNG":-178.194385,"BBOX_MIN_LAT":-14.324902,"BBOX_MAX_LNG":-178.043652,"BBOX_MAX_LAT":-14.231641},"geometry":{"type":"Point","coordinates":[-178.12955205274625,-14.285739083956885]}},{"type":"Feature","id":"WSM","properties":{"ADM0_A3":"WSM","NAME":"Samoa","LABELRANK":4,"BBOX_MIN_LNG":-172.778516,"BBOX_MIN_LAT":-13.804297,"BBOX_MAX_LNG":-172.176855,"BBOX_MAX_LAT":-13.465234},"geometry":{"type":"Point","coordinates":[-172.4374277085906,-13.630816161331863]}},{"type":"Feature","id":"YEM","properties":{"ADM0_A3":"YEM","NAME":"Yemen","LABELRANK":3,"BBOX_MIN_LNG":42.657813,"BBOX_MIN_LAT":12.607666,"BBOX_MAX_LNG":53.085645,"BBOX_MAX_LAT":18.996143},"geometry":{"type":"Point","coordinates":[47.55089414949345,15.950599763839188]}},{"type":"Feature","id":"ZAF","properties":{"ADM0_A3":"ZAF","NAME":"South Africa","LABELRANK":2,"BBOX_MIN_LNG":16.447559,"BBOX_MIN_LAT":-34.785742,"BBOX_MAX_LNG":32.886133,"BBOX_MAX_LAT":-22.146289},"geometry":{"type":"Point","coordinates":[25.103398730386083,-29.1311734365505]}},{"type":"Feature","id":"ZMB","properties":{"ADM0_A3":"ZMB","NAME":"Zambia","LABELRANK":3,"BBOX_MIN_LNG":21.978906,"BBOX_MIN_LAT":-18.041504,"BBOX_MAX_LNG":33.661523,"BBOX_MAX_LAT":-8.193652},"geometry":{"type":"Point","coordinates":[27.757910916197417,-13.490939415505876]}},{"type":"Feature","id":"ZWE","properties":{"ADM0_A3":"ZWE","NAME":"Zimbabwe","LABELRANK":3,"BBOX_MIN_LNG":25.224023,"BBOX_MIN_LAT":-22.402051,"BBOX_MAX_LNG":33.006738,"BBOX_MAX_LAT":-15.643066},"geometry":{"type":"Point","coordinates":[29.85174552816073,-19.027346597431226]}}]}
